[{"OBJECT_NAME":"STARLINK-5645","OBJECT_ID":"2023-014AQ","EPOCH":"2026-03-09T10:49:04.836288","MEAN_MOTION":14.98330342,"ECCENTRICITY":0.00031006,"INCLINATION":69.999,"RA_OF_ASC_NODE":85.1733,"ARG_OF_PERICENTER":267.4686,"MEAN_ANOMALY":92.6118,"EPHEMERIS_TYPE":0,"CLASSIFICATION_TYPE":"U","NORAD_CAT_ID":55429,"ELEMENT_SET_NO":999,"REV_AT_EPOCH":17152,"BSTAR":4.6629793e-5,"MEAN_MOTION_DOT":4.63e-6,"MEAN_MOTION_DDOT":0},{"OBJECT_NAME":"CZ-2C DEB","OBJECT_ID":"2014-014E","EPOCH":"2026-03-09T21:08:21.809472","MEAN_MOTION":14.90058698,"ECCENTRICITY":0.00536612,"INCLINATION":98.2109,"RA_OF_ASC_NODE":181.9668,"ARG_OF_PERICENTER":42.9038,"MEAN_ANOMALY":317.6346,"EPHEMERIS_TYPE":0,"CLASSIFICATION_TYPE":"U","NORAD_CAT_ID":39628,"ELEMENT_SET_NO":999,"REV_AT_EPOCH":63514,"BSTAR":0.00154127,"MEAN_MOTION_DOT":0.00015258,"MEAN_MOTION_DDOT":0}]
